STARLINK-2563           
1 48410U 21038BK  23311.85691961 -.00008486  00000+0 -55169-3 0  9992
2 48410  53.0541 165.1365 0001358  92.4217 267.6927 15.06384078139987
STARLINK-2505           
1 48411U 21038BL  23311.80763509 -.00001803  00000+0 -10221-3 0  9992
2 48411  53.0530 160.3500 0001748 119.7955 240.3208 15.06386869140048
STARLINK-2581           
1 48412U 21038BM  23311.89247026 -.00001000  00000+0 -48269-4 0  9996
2 48412  53.0535 160.4102 0001312  96.9782 263.1356 15.06386219140051
STARLINK-2461           
1 48428U 21040A   23312.49736413  .00003005  00000+0  22054-3 0  9994
2 48428  53.0565  52.2592 0001459  76.0088 284.1063 15.06397634139398
STARLINK-2749           
1 48429U 21040B   23312.00254543  .00023977  00000+0  16229-2 0  9997
2 48429  53.0545  24.4879 0001408  95.7728 264.3422 15.06404747139730
STARLINK-2729           
1 48430U 21040C   23312.43378911 -.00000116  00000+0  11134-4 0  9995
2 48430  53.0558  22.5537 0001357  90.6927 269.4217 15.06390170139804
STARLINK-2700           
1 48431U 21040D   23312.18083210  .00030887  00000+0  20828-2 0  9998
2 48431  53.0552  18.6852 0001870  96.4894 263.6308 15.06410280139006
STARLINK-2680           
1 48432U 21040E   23312.49373723  .00016759  00000+0  11409-2 0  9991
2 48432  53.0554  12.6737 0001528  87.6734 272.4430 15.06412863139272
STARLINK-2699           
1 48433U 21040F   23312.50616621  .00027471  00000+0  18540-2 0  9997
2 48433  53.0548  17.5035 0001354  87.9824 272.1320 15.06438614139201
STARLINK-2692           
1 48434U 21040G   23311.47552985  .00054745  00000+0  36706-2 0  9993
2 48434  53.0546  27.3563 0001937  46.7348 313.3802 15.06350404138826
STARLINK-2633           
1 48435U 21040H   23312.47711741  .00020685  00000+0  14036-2 0  9990
2 48435  53.0558  32.3620 0001875  63.4876 296.6305 15.06397110139662
STARLINK-2639           
1 48436U 21040J   23312.46650870  .00020248  00000+0  13743-2 0  9994
2 48436  53.0543  47.4009 0001728  83.8087 276.3098 15.06400711138623
STARLINK-2642           
1 48437U 21040K   23311.58832447  .00025064  00000+0  16972-2 0  9997
2 48437  53.0540  61.3406 0001179  84.5444 275.5679 15.06364366137903
STARLINK-2640           
1 48438U 21040L   23312.45527132  .00029467  00000+0  19025-2 0  9990
2 48438  53.0560  47.3658 0003075  54.9620 305.1658 15.08040393139455
STARLINK-2583           
1 48439U 21040M   23312.45913721  .00023605  00000+0  15981-2 0  9999
2 48439  53.0545  47.4264 0001309 135.9591 224.1502 15.06405002139456
STARLINK-2682           
1 48440U 21040N   23312.45544372  .00022684  00000+0  15350-2 0  9999
2 48440  53.0548  47.4434 0001387  77.8845 282.2300 15.06444880138628
STARLINK-2702           
1 48441U 21040P   23312.45177776  .00022242  00000+0  15074-2 0  9993
2 48441  53.0551  47.4592 0001246  95.6291 264.4840 15.06399209139452
STARLINK-2644           
1 48442U 21040Q   23312.44808553  .00020614  00000+0  13994-2 0  9997
2 48442  53.0556  47.4841 0001354 102.9975 257.1165 15.06381667139454
STARLINK-2663           
1 48443U 21040R   23312.37805629  .00017811  00000+0  12118-2 0  9993
2 48443  53.0559  47.7962 0001505  90.4253 269.6909 15.06392696139440
STARLINK-2645           
1 48444U 21040S   23312.50704908  .00011066  00000+0  76051-3 0  9990
2 48444  53.0540  47.2173 0001415  97.8797 262.2353 15.06406618139468
STARLINK-2634           
1 48445U 21040T   23311.97259395  .00017293  00000+0  11778-2 0  9998
2 48445  53.0565  49.6139 0001633 107.3271 252.7896 15.06373453139387
STARLINK-2247           
1 48446U 21040U   23312.49968588  .00031596  00000+0  21297-2 0  9997
2 48446  53.0565  47.2532 0001166 148.6379 211.4680 15.06415515139465
STARLINK-2269           
1 48447U 21040V   23312.49600136  .00009906  00000+0  68298-3 0  9993
2 48447  53.0544  47.2602 0001439  96.8974 263.2179 15.06398562138738
STARLINK-2632           
1 48448U 21040W   23312.46284428  .00022643  00000+0  15348-2 0  9993
2 48448  53.0548  47.5052 0001441 123.2470 236.8658 15.06383907139448
STARLINK-2655           
1 48449U 21040X   23312.49229918  .00030475  00000+0  20534-2 0  9995
2 48449  53.0555  47.2839 0001219  81.2312 278.8815 15.06446707139469
STARLINK-2660           
1 48450U 21040Y   23312.49137180  .00008918  00000+0  61675-3 0  9995
2 48450  53.0552  47.3148 0001252  82.2304 277.8827 15.06402642139463
STARLINK-2652           
1 48451U 21040Z   23312.48863034  .00019699  00000+0  13378-2 0  9993
2 48451  53.0550  47.3342 0001214  99.2270 260.8856 15.06396260139468
STARLINK-2703           
1 48452U 21040AA  23312.48493685  .00011683  00000+0  80220-3 0  9991
2 48452  53.0557  47.2847 0001952  93.2351 266.8861 15.06387376139468
STARLINK-2620           
1 48453U 21040AB  23312.48125695  .00018876  00000+0  12826-2 0  9992
2 48453  53.0547  47.3311 0001480  96.5584 263.5574 15.06402886139464
STARLINK-2654           
1 48454U 21040AC  23312.01313271  .00003926  00000+0  28229-3 0  9996
2 48454  53.0557  49.4331 0001324  95.7882 264.3258 15.06403707139393
STARLINK-2497           
1 48455U 21040AD  23312.47387687  .00006791  00000+0  47438-3 0  9995
2 48455  53.0556  47.3643 0001338  97.0231 263.0910 15.06397103138789
STARLINK-2508           
1 48456U 21040AE  23312.47020316  .00019885  00000+0  13500-2 0  9999
2 48456  53.0552  47.3780 0001359  68.4763 291.6371 15.06402599138787
STARLINK-2698           
1 48458U 21040AG  23312.01821752 -.00002571  00000+0 -15395-3 0  9995
2 48458  53.0552  54.4981 0000866  90.3897 269.7191 15.06367799138581
STARLINK-2579           
1 48459U 21040AH  23312.47529800  .00004571  00000+0  32556-3 0  9993
2 48459  53.0550  52.7114 0001167  88.7969 271.3154 15.06401482138716
STARLINK-2582           
1 48460U 21040AJ  23311.56483079  .00017302  00000+0  11785-2 0  9997
2 48460  53.0540  56.4448 0001409  95.9548 264.1602 15.06372022138489
STARLINK-2693           
1 48461U 21040AK  23312.50844742  .00042344  00000+0  28449-2 0  9990
2 48461  53.0547  52.2074 0001487  92.4500 267.6659 15.06396143139393
STARLINK-2683           
1 48462U 21040AL  23312.49142507  .00025508  00000+0  17241-2 0  9990
2 48462  53.0559  57.5693 0001824  80.3254 279.7941 15.06421774138643
STARLINK-2689           
1 48463U 21040AM  23311.63527679 -.00002821  00000+0 -17061-3 0  9999
2 48463  53.0553  61.1308 0001302  85.0999 275.0138 15.06384969139193
STARLINK-2686           
1 48464U 21040AN  23312.01221981 -.00001753  00000+0 -98866-4 0  9996
2 48464  53.0553  59.4369 0001546  85.8528 274.2638 15.06383983139255
STARLINK-2681           
1 48465U 21040AP  23312.02327352  .00004454  00000+0  31781-3 0  9998
2 48465  53.0564  59.3854 0001435  65.1247 294.9891 15.06387134139254
STARLINK-2687           
1 48466U 21040AQ  23312.00853282 -.00003739  00000+0 -23244-3 0  9995
2 48466  53.0546  59.4521 0001424  87.0044 273.1108 15.06374537139256
STARLINK-2659           
1 48467U 21040AR  23312.49874058 -.00006395  00000+0 -41108-3 0  9993
2 48467  53.0549  57.2532 0001205  83.8323 276.2803 15.06377031139325
STARLINK-2685           
1 48468U 21040AS  23312.41398145  .00010804  00000+0  74315-3 0  9998
2 48468  53.0562  57.6393 0001028 102.4480 257.6624 15.06395886139316
STARLINK-2661           
1 48469U 21040AT  23312.49507018  .00004331  00000+0  30949-3 0  9991
2 48469  53.0561  57.2707 0001329  95.7976 264.3165 15.06395627139328
STARLINK-2675           
1 48470U 21040AU  23312.02601660  .00021254  00000+0  14420-2 0  9998
2 48470  53.0547  59.3657 0001559  91.3220 268.7947 15.06384950139255
STARLINK-2684           
1 48471U 21040AV  23312.48400277  .00001742  00000+0  13585-3 0  9992
2 48471  53.0562  57.3147 0001295  92.4085 267.7052 15.06386212139320
STARLINK-2722           
1 48472U 21040AW  23312.00115460 -.00003774  00000+0 -23465-3 0  9995
2 48472  53.0555  59.4876 0001076 103.1667 256.9442 15.06390639138418
STARLINK-2658           
1 48473U 21040AX  23312.43614417 -.00021577  00000+0 -14382-2 0  9997
2 48473  53.0570  57.5333 0001527  81.0982 279.0180 15.06292523139316
STARLINK-2697           
1 48474U 21040AY  23312.46927273  .00011960  00000+0  82075-3 0  9996
2 48474  53.0552  57.3840 0001531 115.2816 244.8332 15.06385377139318
STARLINK-2619           
1 48475U 21040AZ  23312.04169858 -.00001935  00000+0 -11109-3 0  9991
2 48475  53.0555  59.3056 0001337 102.6254 257.4884 15.06378325139253
STARLINK-2723           
1 48476U 21040BA  23312.46189833  .00029715  00000+0  20040-2 0  9990
2 48476  53.0546  57.4159 0001147  76.2975 283.8142 15.06425997139317
STARLINK-2728           
1 48478U 21040BC  23312.44715597  .00006697  00000+0  46819-3 0  9999
2 48478  53.0562  57.4850 0001217  94.5094 265.6034 15.06389257138649
STARLINK-2755           
1 48479U 21040BD  23312.44347615  .00011346  00000+0  77922-3 0  9998
2 48479  53.0564  57.5035 0001336  80.1456 279.9684 15.06405849139313
STARLINK-2690           
1 48480U 21040BE  23312.45633640  .00001612  00000+0  12710-3 0  9996
2 48480  53.0532  67.4357 0001472  71.6334 288.4814 15.06394989139174
STARLINK-2706           
1 48481U 21040BF  23312.03343723 -.00001167  00000+0 -59491-4 0  9996
2 48481  53.0556  69.6219 0001306  95.5677 264.5461 15.06385410139108
STARLINK-2525           
1 48482U 21040BG  23312.46465970  .00012859  00000+0  88062-3 0  9996
2 48482  53.0563  67.4084 0001524 106.2243 253.8914 15.06399539138340
STARLINK-2531           
1 48483U 21040BH  23312.32827854  .00003224  00000+0  23529-3 0  9998
2 48483  53.0550  68.0193 0001444  92.3452 267.7702 15.06392206139156
STARLINK-2696           
1 48484U 21040BJ  23311.60954704 -.00001549  00000+0 -85138-4 0  9999
2 48484  53.0548  71.5994 0001332  89.6514 270.4628 15.06398425139041
STARLINK-2500           
1 48485U 21040BK  23312.07026324  .00012463  00000+0  85438-3 0  9997
2 48485  53.0549  69.1757 0001268  71.0989 289.0137 15.06386231139113
